STARLINK-34524          
1 64431U 25129V   26068.45269155 -.00010325  00000+0 -85866-3 0  9994
2 64431  70.0013  74.9812 0003004 266.7410  93.3405 14.98337950 41193
LEMUR-2-LUCILLE-ROSE    
1 65403U 25135BV  26068.85671001  .00014478  00000+0  12144-2 0  9991
2 65403  97.7607 185.3540 0009982 240.4750 119.5478 14.98437227 33752
